CCSDS_OMM_VERS = 2.0
CREATION_DATE  = 
ORIGINATOR     = 

OBJECT_NAME    = 2026-027E
OBJECT_ID      = 2026-027E
CENTER_NAME    = EARTH
REF_FRAME      = TEME
TIME_SYSTEM    = UTC
MEAN_ELEMENT_THEORY = SGP/SGP4

EPOCH          = 2026-03-09T15:08:16.744704
MEAN_MOTION    = 15.18117918
ECCENTRICITY   = .0009525
INCLINATION    = 97.4915
RA_OF_ASC_NODE = 197.6642
ARG_OF_PERICENTER = 205.3643
MEAN_ANOMALY   = 154.7125

EPHEMERIS_TYPE = 0
CLASSIFICATION_TYPE = U
NORAD_CAT_ID   = 67750
ELEMENT_SET_NO = 999
REV_AT_EPOCH   = 385
BSTAR          = .51943653E-3
MEAN_MOTION_DOT = .10548E-3
MEAN_MOTION_DDOT = 0

CCSDS_OMM_VERS = 2.0
CREATION_DATE  = 
ORIGINATOR     = 

OBJECT_NAME    = 2026-027F
OBJECT_ID      = 2026-027F
CENTER_NAME    = EARTH
REF_FRAME      = TEME
TIME_SYSTEM    = UTC
MEAN_ELEMENT_THEORY = SGP/SGP4

EPOCH          = 2026-03-08T13:45:56.453184
MEAN_MOTION    = 15.18308880
ECCENTRICITY   = .00105861
INCLINATION    = 97.4915
RA_OF_ASC_NODE = 196.6238
ARG_OF_PERICENTER = 208.9394
MEAN_ANOMALY   = 151.1254

EPHEMERIS_TYPE = 0
CLASSIFICATION_TYPE = U
NORAD_CAT_ID   = 67751
ELEMENT_SET_NO = 999
REV_AT_EPOCH   = 369
BSTAR          = .26616807E-3
MEAN_MOTION_DOT = .5399E-4
MEAN_MOTION_DDOT = 0

CCSDS_OMM_VERS = 2.0
CREATION_DATE  = 
ORIGINATOR     = 

OBJECT_NAME    = 2026-027G
OBJECT_ID      = 2026-027G
CENTER_NAME    = EARTH
REF_FRAME      = TEME
TIME_SYSTEM    = UTC
MEAN_ELEMENT_THEORY = SGP/SGP4

EPOCH          = 2026-03-09T15:32:27.815424
MEAN_MOTION    = 15.12139542
ECCENTRICITY   = .00120038
INCLINATION    = 97.4906
RA_OF_ASC_NODE = 197.6402
ARG_OF_PERICENTER = 228.3056
MEAN_ANOMALY   = 131.7148

EPHEMERIS_TYPE = 0
CLASSIFICATION_TYPE = U
NORAD_CAT_ID   = 67752
ELEMENT_SET_NO = 999
REV_AT_EPOCH   = 385
BSTAR          = .51831853E-3
MEAN_MOTION_DOT = .8888E-4
MEAN_MOTION_DDOT = 0

CCSDS_OMM_VERS = 2.0
CREATION_DATE  = 
ORIGINATOR     = 

OBJECT_NAME    = JIELONG-3 R/B
OBJECT_ID      = 2026-027H
CENTER_NAME    = EARTH
REF_FRAME      = TEME
TIME_SYSTEM    = UTC
MEAN_ELEMENT_THEORY = SGP/SGP4

EPOCH          = 2026-03-09T13:43:54.730272
MEAN_MOTION    = 15.75874545
ECCENTRICITY   = .02137568
INCLINATION    = 97.5117
RA_OF_ASC_NODE = 199.5886
ARG_OF_PERICENTER = 245.2870
MEAN_ANOMALY   = 112.6011

EPHEMERIS_TYPE = 0
CLASSIFICATION_TYPE = U
NORAD_CAT_ID   = 67753
ELEMENT_SET_NO = 999
REV_AT_EPOCH   = 396
BSTAR          = .72649295E-3
MEAN_MOTION_DOT = .553199E-2
MEAN_MOTION_DDOT = .2369188E-5

CCSDS_OMM_VERS = 2.0
CREATION_DATE  = 
ORIGINATOR     = 

OBJECT_NAME    = JIELONG-3 DEB
OBJECT_ID      = 2026-027J
CENTER_NAME    = EARTH
REF_FRAME      = TEME
TIME_SYSTEM    = UTC
MEAN_ELEMENT_THEORY = SGP/SGP4

EPOCH          = 2026-03-09T14:03:00.234432
MEAN_MOTION    = 16.38523310
ECCENTRICITY   = .00535568
INCLINATION    = 97.4912
RA_OF_ASC_NODE = 200.1849
ARG_OF_PERICENTER = 253.0553
MEAN_ANOMALY   = 106.4871

EPHEMERIS_TYPE = 0
CLASSIFICATION_TYPE = U
NORAD_CAT_ID   = 67754
ELEMENT_SET_NO = 999
REV_AT_EPOCH   = 394
BSTAR          = .3081167E-3
MEAN_MOTION_DOT = .12424544E+0
MEAN_MOTION_DDOT = .2398665E-5

CCSDS_OMM_VERS = 2.0
CREATION_DATE  = 
ORIGINATOR     = 

OBJECT_NAME    = 2026-028A
OBJECT_ID      = 2026-028A
CENTER_NAME    = EARTH
REF_FRAME      = TEME
TIME_SYSTEM    = UTC
MEAN_ELEMENT_THEORY = SGP/SGP4

EPOCH          = 2026-03-05T07:50:47.616864
MEAN_MOTION    = 0.99523939
ECCENTRICITY   = .0042016
INCLINATION    = 0.4806
RA_OF_ASC_NODE = 289.7424
ARG_OF_PERICENTER = 229.1663
MEAN_ANOMALY   = 201.2342

EPHEMERIS_TYPE = 0
CLASSIFICATION_TYPE = U
NORAD_CAT_ID   = 67756
ELEMENT_SET_NO = 999
REV_AT_EPOCH   = 21
BSTAR          = 0
MEAN_MOTION_DOT = .4E-7
MEAN_MOTION_DDOT = 0

CCSDS_OMM_VERS = 2.0
CREATION_DATE  = 
ORIGINATOR     = 

OBJECT_NAME    = JAM-E JAM 1
OBJECT_ID      = 2026-028B
CENTER_NAME    = EARTH
REF_FRAME      = TEME
TIME_SYSTEM    = UTC
MEAN_ELEMENT_THEORY = SGP/SGP4

EPOCH          = 2026-03-06T14:07:26.036256
MEAN_MOTION    = 1.00260970
ECCENTRICITY   = .00045148
INCLINATION    = 0.5003
RA_OF_ASC_NODE = 285.7022
ARG_OF_PERICENTER = 129.9316
MEAN_ANOMALY   = 355.2368

EPHEMERIS_TYPE = 0
CLASSIFICATION_TYPE = U
NORAD_CAT_ID   = 67757
ELEMENT_SET_NO = 999
REV_AT_EPOCH   = 9
BSTAR          = 0
MEAN_MOTION_DOT = .151E-5
MEAN_MOTION_DDOT = 0

CCSDS_OMM_VERS = 2.0
CREATION_DATE  = 
ORIGINATOR     = 

OBJECT_NAME    = KUIPER-00159
OBJECT_ID      = 2026-030A
CENTER_NAME    = EARTH
REF_FRAME      = TEME
TIME_SYSTEM    = UTC
MEAN_ELEMENT_THEORY = SGP/SGP4

EPOCH          = 2026-03-09T15:10:26.375808
MEAN_MOTION    = 15.35788737
ECCENTRICITY   = .00050119
INCLINATION    = 51.8841
RA_OF_ASC_NODE = 219.4438
ARG_OF_PERICENTER = 44.9181
MEAN_ANOMALY   = 315.2210

EPHEMERIS_TYPE = 0
CLASSIFICATION_TYPE = U
NORAD_CAT_ID   = 67764
ELEMENT_SET_NO = 999
REV_AT_EPOCH   = 508
BSTAR          = .76095543E-3
MEAN_MOTION_DOT = .2662E-3
MEAN_MOTION_DDOT = 0

CCSDS_OMM_VERS = 2.0
CREATION_DATE  = 
ORIGINATOR     = 

OBJECT_NAME    = KUIPER-00160
OBJECT_ID      = 2026-030B
CENTER_NAME    = EARTH
REF_FRAME      = TEME
TIME_SYSTEM    = UTC
MEAN_ELEMENT_THEORY = SGP/SGP4

EPOCH          = 2026-03-09T10:31:42.039264
MEAN_MOTION    = 15.35611148
ECCENTRICITY   = .00055709
INCLINATION    = 51.8803
RA_OF_ASC_NODE = 220.3859
ARG_OF_PERICENTER = 50.9572
MEAN_ANOMALY   = 309.1910

EPHEMERIS_TYPE = 0
CLASSIFICATION_TYPE = U
NORAD_CAT_ID   = 67765
ELEMENT_SET_NO = 999
REV_AT_EPOCH   = 505
BSTAR          = .11219703E-2
MEAN_MOTION_DOT = .39277E-3
MEAN_MOTION_DDOT = 0

CCSDS_OMM_VERS = 2.0
CREATION_DATE  = 
ORIGINATOR     = 

OBJECT_NAME    = KUIPER-00177
OBJECT_ID      = 2026-030C
CENTER_NAME    = EARTH
REF_FRAME      = TEME
TIME_SYSTEM    = UTC
MEAN_ELEMENT_THEORY = SGP/SGP4

EPOCH          = 2026-03-09T10:10:31.991232
MEAN_MOTION    = 15.36550172
ECCENTRICITY   = .00011953
INCLINATION    = 51.8829
RA_OF_ASC_NODE = 220.2966
ARG_OF_PERICENTER = 15.4791
MEAN_ANOMALY   = 344.6232

EPHEMERIS_TYPE = 0
CLASSIFICATION_TYPE = U
NORAD_CAT_ID   = 67766
ELEMENT_SET_NO = 999
REV_AT_EPOCH   = 505
BSTAR          = .83134043E-3
MEAN_MOTION_DOT = .2985E-3
MEAN_MOTION_DDOT = 0

CCSDS_OMM_VERS = 2.0
CREATION_DATE  = 
ORIGINATOR     = 

OBJECT_NAME    = KUIPER-00178
OBJECT_ID      = 2026-030D
CENTER_NAME    = EARTH
REF_FRAME      = TEME
TIME_SYSTEM    = UTC
MEAN_ELEMENT_THEORY = SGP/SGP4

EPOCH          = 2026-03-09T15:15:28.535616
MEAN_MOTION    = 15.35571325
ECCENTRICITY   = .00064506
INCLINATION    = 51.8828
RA_OF_ASC_NODE = 219.4634
ARG_OF_PERICENTER = 46.2779
MEAN_ANOMALY   = 313.8741

EPHEMERIS_TYPE = 0
CLASSIFICATION_TYPE = U
NORAD_CAT_ID   = 67767
ELEMENT_SET_NO = 999
REV_AT_EPOCH   = 508
BSTAR          = .70511094E-3
MEAN_MOTION_DOT = .24464E-3
MEAN_MOTION_DDOT = 0

CCSDS_OMM_VERS = 2.0
CREATION_DATE  = 
ORIGINATOR     = 

OBJECT_NAME    = KUIPER-00180
OBJECT_ID      = 2026-030E
CENTER_NAME    = EARTH
REF_FRAME      = TEME
TIME_SYSTEM    = UTC
MEAN_ELEMENT_THEORY = SGP/SGP4

EPOCH          = 2026-03-09T09:58:00.679296
MEAN_MOTION    = 15.31540346
ECCENTRICITY   = .00136096
INCLINATION    = 51.8823
RA_OF_ASC_NODE = 220.9670
ARG_OF_PERICENTER = 73.0506
MEAN_ANOMALY   = 287.1969

EPHEMERIS_TYPE = 0
CLASSIFICATION_TYPE = U
NORAD_CAT_ID   = 67768
ELEMENT_SET_NO = 999
REV_AT_EPOCH   = 504
BSTAR          = .11370837E-2
MEAN_MOTION_DOT = .35031E-3
MEAN_MOTION_DDOT = 0

