2026-027E               
1 67750U 26027E   26068.63074936  .00010548  00000+0  51944-3 0  9995
2 67750  97.4915 197.6642 0009525 205.3643 154.7125 15.18117918  3854
2026-027F               
1 67751U 26027F   26067.57357006  .00005399  00000+0  26617-3 0  9997
2 67751  97.4915 196.6238 0010586 208.9394 151.1254 15.18308880  3692
2026-027G               
1 67752U 26027G   26068.64754416  .00008888  00000+0  51832-3 0  9996
2 67752  97.4906 197.6402 0012003 228.3056 131.7148 15.12139542  3859
JIELONG-3 R/B           
1 67753U 26027H   26068.57216123  .00553199  23692-5  72649-3 0  9994
2 67753  97.5117 199.5886 0213756 245.2870 112.6011 15.75874545  3969
JIELONG-3 DEB           
1 67754U 26027J   26068.58541938  .12424544  23987-5  30812-3 0  9998
2 67754  97.4912 200.1849 0053556 253.0553 106.4871 16.38523310  3949
2026-028A               
1 67756U 26028A   26064.32694001  .00000004  00000+0  00000+0 0  9994
2 67756   0.4806 289.7424 0042016 229.1663 201.2342  0.99523939   215
JAM-E JAM 1             
1 67757U 26028B   26065.58849579  .00000151  00000+0  00000+0 0  9999
2 67757   0.5003 285.7022 0004514 129.9316 355.2368  1.00260970    99
KUIPER-00159            
1 67764U 26030A   26068.63224972  .00026620  00000+0  76096-3 0  9994
2 67764  51.8841 219.4438 0005011  44.9181 315.2210 15.35788737  5085
KUIPER-00160            
1 67765U 26030B   26068.43868101  .00039277  00000+0  11220-2 0  9990
2 67765  51.8803 220.3859 0005570  50.9572 309.1910 15.35611148  5050
KUIPER-00177            
1 67766U 26030C   26068.42398138  .00029850  00000+0  83134-3 0  9998
2 67766  51.8829 220.2966 0001195  15.4791 344.6232 15.36550172  5056
KUIPER-00178            
1 67767U 26030D   26068.63574694  .00024464  00000+0  70511-3 0  9996
2 67767  51.8828 219.4634 0006450  46.2779 313.8741 15.35571325  5083
KUIPER-00180            
1 67768U 26030E   26068.41528564  .00035031  00000+0  11371-2 0  9998
2 67768  51.8823 220.9670 0013609  73.0506 287.1969 15.31540346  5042
